CRE (WAAS/PRN 138)      
1 28868U 05036A   22026.46590510 -.00000064  00000+0  00000+0 0  9997
2 28868   0.2033  93.4733 0002415 270.6775 181.9888  1.00271094 60088
IOR-W (EGNOS/PRN 126)   
1 28899U 05044A   22026.10605097  .00000019  00000+0  00000+0 0  9997
2 28899   3.3941  36.0203 0002739 278.4174 272.9959  1.00272351 59420
QZS-1 (QZSS/PRN 183)    
1 37158U 10045A   22025.57819830 -.00000125  00000+0  00000+0 0  9993
2 37158  42.1877 135.3715 0762302 270.5138  70.1955  1.00266695 41654
GSAT-8 (GAGAN/PRN 127)  
1 37605U 11022A   22026.11160535  .00000095  00000+0  00000+0 0  9993
2 37605   0.0419 255.3214 0007648  22.2950 302.9945  1.00272393 39162
LUCH 5A (SDCM/PRN 140)  
1 37951U 11074B   22025.87642084 -.00000040  00000+0  00000+0 0  9991
2 37951   4.6602 100.5373 0002669 215.4333 291.5364  1.00273079 37119
SES-5 (EGNOS/PRN 136)   
1 38652U 12036A   22025.84415007  .00000044  00000+0  00000+0 0  9992
2 38652   0.0595 285.8446 0001852  22.0082 126.1227  1.00271287 28416
GSAT-10 (GAGAN/PRN 128) 
1 38779U 12051B   22026.22896344 -.00000155  00000+0  00000+0 0  9993
2 38779   0.0928 272.7994 0003443 343.1168  35.0092  1.00271868 34217
LUCH 5B (SDCM/PRN 125)  
1 38977U 12061A   22026.22639260 -.00000129  00000+0  00000+0 0  9997
2 38977   6.9837  63.6712 0000736 298.5824 188.4182  1.00272312 34106
ASTRA 5B (EGNOS/PRN 123)
1 39617U 14011B   22026.30604950  .00000165  00000+0  00000+0 0  9992
2 39617   0.0444 325.3319 0003789 323.7628 338.1114  1.00269248 28793
LUCH 5V (SDCM/PRN 141)  
1 39727U 14023A   22025.79033637 -.00000259  00000+0  00000+0 0  9992
2 39727   1.1686  72.0610 0002056 282.6274 149.6198  1.00273278 28280
GSAT-15 (GAGAN/PRN 139) 
1 41028U 15065A   22025.86176816 -.00000247  00000+0  00000+0 0  9998
2 41028   0.0513 266.1785 0000987 351.8628 270.8023  1.00269737 22739
E 117 W B (WAAS/PRN 131)
1 41589U 16038B   22026.45787612 -.00000002  00000+0  00000+0 0  9998
2 41589   0.0204 241.6096 0000097 208.3633  83.5754  1.00271238 20631
SES-15 (WAAS/PRN 133)   
1 42709U 17026A   22026.14547782  .00000070  00000+0  00000+0 0  9993
2 42709   0.0180  12.0411 0000396 315.4640  81.1182  1.00269761 18117
QZS-2 (QZSS/PRN 184)    
1 42738U 17028A   22025.52618995 -.00000109  00000+0  00000+0 0  9997
2 42738  42.0077 266.1829 0753076 269.8326 279.2371  1.00276633 17067
QZS-3 (QZSS/PRN 189)    
1 42917U 17048A   22025.86848397 -.00000338  00000+0  00000+0 0  9990
2 42917   0.0600 217.4609 0001720 104.7201 242.6073  1.00267808 16187
QZS-4 (QZSS/PRN 185)    
1 42965U 17062A   22026.27136852 -.00000306  00000+0  00000+0 0  9996
2 42965  40.7968   3.9399 0750753 268.8727  87.7101  1.00292594 15734
